{"type": "FeatureCollection", "features": [ {"type": "Feature", "properties": {"norad_id": 43108, "name": "BEIDOU-3 M8 (C28)", "group": "beidou", "lat": -54.13960515562205, "lon": -132.56359815219892, "alt_km": 21521.07657920057, "timestamp": "2025-12-26T19:22:39.172078+00:00", "meta": {"OBJECT_NAME": "BEIDOU-3 M8 (C28)", "OBJECT_ID": "2018-003B", "EPOCH": "2025-12-24T05:58:21.185184", "MEAN_MOTION": 1.86231107, "ECCENTRICITY": 0.00045887, "INCLINATION": 54.4794, "RA_OF_ASC_NODE": 308.398, "ARG_OF_PERICENTER": 279.3969, "MEAN_ANOMALY": 80.5568, "EPHEMERIS_TYPE": 0, "CLASSIFICATION_TYPE": "U", "NORAD_CAT_ID": 43108, "ELEMENT_SET_NO": 999, "REV_AT_EPOCH": 5410, "BSTAR": 0, "MEAN_MOTION_DOT": -5.4e-07, "MEAN_MOTION_DDOT": 0}, "tle": {"line1": "1 43108U 18003B   25358.24885631 -.00000054  00000+0  00000+0 0  9996", "line2": "2 43108  54.4794 308.3980 0004588 279.3969  80.5568  1.86231107 54103"}}, "geometry": {"type": "Point", "coordinates": [-132.56359815219892, -54.13960515562205]}}, {"type": "Feature", "properties": {"norad_id": 43207, "name": "BEIDOU-3 M4 (C22)", "group": "beidou", "lat": -17.38746639262339, "lon": 56.89828941420061, "alt_km": 21519.60366052887, "timestamp": "2025-12-26T19:22:39.172089+00:00", "meta": {"OBJECT_NAME": "BEIDOU-3 M4 (C22)", "OBJECT_ID": "2018-018A", "EPOCH": "2025-12-25T18:21:17.493120", "MEAN_MOTION": 1.86231089, "ECCENTRICITY": 0.00042291, "INCLINATION": 56.4961, "RA_OF_ASC_NODE": 68.874, "ARG_OF_PERICENTER": 1.268, "MEAN_ANOMALY": 358.7861, "EPHEMERIS_TYPE": 0, "CLASSIFICATION_TYPE": "U", "NORAD_CAT_ID": 43207, "ELEMENT_SET_NO": 999, "REV_AT_EPOCH": 5351, "BSTAR": 0, "MEAN_MOTION_DOT": -2.7e-07, "MEAN_MOTION_DDOT": 0}, "tle": {"line1": "1 43207U 18018A   25359.76478580 -.00000027  00000+0  00000+0 0  9991", "line2": "2 43207  56.4961  68.8740 0004229   1.2680 358.7861  1.86231089 53516"}}, "geometry": {"type": "Point", "coordinates": [56.89828941420061, -17.38746639262339]}}, {"type": "Feature", "properties": {"norad_id": 43208, "name": "BEIDOU-3 M3 (C21)", "group": "beidou", "lat": -49.43961615384062, "lon": 18.23535515473389, "alt_km": 21514.789276288317, "timestamp": "2025-12-26T19:22:39.172103+00:00", "meta": {"OBJECT_NAME": "BEIDOU-3 M3 (C21)", "OBJECT_ID": "2018-018B", "EPOCH": "2025-12-26T08:50:15.779616", "MEAN_MOTION": 1.86231383, "ECCENTRICITY": 0.00071474, "INCLINATION": 56.4961, "RA_OF_ASC_NODE": 68.858, "ARG_OF_PERICENTER": 313.9083, "MEAN_ANOMALY": 46.0843, "EPHEMERIS_TYPE": 0, "CLASSIFICATION_TYPE": "U", "NORAD_CAT_ID": 43208, "ELEMENT_SET_NO": 999, "REV_AT_EPOCH": 5352, "BSTAR": 0, "MEAN_MOTION_DOT": -3e-07, "MEAN_MOTION_DDOT": 0}, "tle": {"line1": "1 43208U 18018B   25360.36823819 -.00000030  00000+0  00000+0 0  9993", "line2": "2 43208  56.4961  68.8580 0007147 313.9083  46.0843  1.86231383 53526"}}, "geometry": {"type": "Point", "coordinates": [18.23535515473389, -49.43961615384062]}}, {"type": "Feature", "properties": {"norad_id": 43245, "name": "BEIDOU-3 M9 (C29)", "group": "beidou", "lat": 24.42352733903381, "lon": 106.96362766515253, "alt_km": 21528.728986440856, "timestamp": "2025-12-26T19:22:39.172127+00:00", "meta": {"OBJECT_NAME": "BEIDOU-3 M9 (C29)", "OBJECT_ID": "2018-029A", "EPOCH": "2025-12-26T01:08:32.545824", "MEAN_MOTION": 1.86228224, "ECCENTRICITY": 0.00015465, "INCLINATION": 54.3537, "RA_OF_ASC_NODE": 306.0047, "ARG_OF_PERICENTER": 290.5162, "MEAN_ANOMALY": 69.4771, "EPHEMERIS_TYPE": 0, "CLASSIFICATION_TYPE": "U", "NORAD_CAT_ID": 43245, "ELEMENT_SET_NO": 999, "REV_AT_EPOCH": 5267, "BSTAR": 0, "MEAN_MOTION_DOT": -5.5e-07, "MEAN_MOTION_DDOT": 0}, "tle": {"line1": "1 43245U 18029A   25360.04759891 -.00000055  00000+0  00000+0 0  9996", "line2": "2 43245  54.3537 306.0047 0001546 290.5162  69.4771  1.86228224 52677"}}, "geometry": {"type": "Point", "coordinates": [106.96362766515253, 24.42352733903381]}}, {"type": "Feature", "properties": {"norad_id": 43246, "name": "BEIDOU-3 M10 (C30)", "group": "beidou", "lat": -10.450940377667457, "lon": 133.58841046066155, "alt_km": 21541.85241052277, "timestamp": "2025-12-26T19:22:39.172140+00:00", "meta": {"OBJECT_NAME": "BEIDOU-3 M10 (C30)", "OBJECT_ID": "2018-029B", "EPOCH": "2025-12-25T23:35:13.323840", "MEAN_MOTION": 1.86229188, "ECCENTRICITY": 0.00043665, "INCLINATION": 54.3511, "RA_OF_ASC_NODE": 306.0337, "ARG_OF_PERICENTER": 3.7555, "MEAN_ANOMALY": 356.2576, "EPHEMERIS_TYPE": 0, "CLASSIFICATION_TYPE": "U", "NORAD_CAT_ID": 43246, "ELEMENT_SET_NO": 999, "REV_AT_EPOCH": 5265, "BSTAR": 0, "MEAN_MOTION_DOT": -5.5e-07, "MEAN_MOTION_DDOT": 0}, "tle": {"line1": "1 43246U 18029B   25359.98279310 -.00000055  00000+0  00000+0 0  9991", "line2": "2 43246  54.3511 306.0337 0004366   3.7555 356.2576  1.86229188 52653"}}, "geometry": {"type": "Point", "coordinates": [133.58841046066155, -10.450940377667457]}}, {"type": "Feature", "properties": {"norad_id": 43539, "name": "BEIDOU-2 IGSO-7 (C16)", "group": "beidou", "lat": -22.08369260087241, "lon": 148.11889239816222, "alt_km": 35842.83951232242, "timestamp": "2025-12-26T19:22:39.172152+00:00", "meta": {"OBJECT_NAME": "BEIDOU-2 IGSO-7 (C16)", "OBJECT_ID": "2018-057A", "EPOCH": "2025-12-23T21:03:51.666912", "MEAN_MOTION": 1.00254881, "ECCENTRICITY": 0.00930582, "INCLINATION": 55.1784, "RA_OF_ASC_NODE": 164.5741, "ARG_OF_PERICENTER": 235.1099, "MEAN_ANOMALY": 119.1175, "EPHEMERIS_TYPE": 0, "CLASSIFICATION_TYPE": "U", "NORAD_CAT_ID": 43539, "ELEMENT_SET_NO": 999, "REV_AT_EPOCH": 2736, "BSTAR": 0, "MEAN_MOTION_DOT": -6.1e-07, "MEAN_MOTION_DDOT": 0}, "tle": {"line1": "1 43539U 18057A   25357.87768133 -.00000061  00000+0  00000+0 0  9996", "line2": "2 43539  55.1784 164.5741 0093058 235.1099 119.1175  1.00254881 27360"}}, "geometry": {"type": "Point", "coordinates": [148.11889239816222, -22.08369260087241]}}, {"type": "Feature", "properties": {"norad_id": 43581, "name": "BEIDOU-3 M5 (C23)", "group": "beidou", "lat": 33.030635037567805, "lon": -143.71502459457764, "alt_km": 21520.181267137286, "timestamp": "2025-12-26T19:22:39.172177+00:00", "meta": {"OBJECT_NAME": "BEIDOU-3 M5 (C23)", "OBJECT_ID": "2018-062A", "EPOCH": "2025-12-24T01:25:43.982112", "MEAN_MOTION": 1.86228769, "ECCENTRICITY": 0.0001922, "INCLINATION": 54.09, "RA_OF_ASC_NODE": 188.2582, "ARG_OF_PERICENTER": 1.0455, "MEAN_ANOMALY": 358.9913, "EPHEMERIS_TYPE": 0, "CLASSIFICATION_TYPE": "U", "NORAD_CAT_ID": 43581, "ELEMENT_SET_NO": 999, "REV_AT_EPOCH": 5037, "BSTAR": 0, "MEAN_MOTION_DOT": 1.01e-06, "MEAN_MOTION_DDOT": 0}, "tle": {"line1": "1 43581U 18062A   25358.05953683  .00000101  00000+0  00000+0 0  9990", "line2": "2 43581  54.0900 188.2582 0001922   1.0455 358.9913  1.86228769 50376"}}, "geometry": {"type": "Point", "coordinates": [-143.71502459457764, 33.030635037567805]}}, {"type": "Feature", "properties": {"norad_id": 43582, "name": "BEIDOU-3 M6 (C24)", "group": "beidou", "lat": 35.381809255217775, "lon": -22.82801965386589, "alt_km": 21521.89528337912, "timestamp": "2025-12-26T19:22:39.172193+00:00", "meta": {"OBJECT_NAME": "BEIDOU-3 M6 (C24)", "OBJECT_ID": "2018-062B", "EPOCH": "2025-12-23T22:08:28.739040", "MEAN_MOTION": 1.86229712, "ECCENTRICITY": 0.00078704, "INCLINATION": 54.0895, "RA_OF_ASC_NODE": 188.252, "ARG_OF_PERICENTER": 49.2706, "MEAN_ANOMALY": 310.8346, "EPHEMERIS_TYPE": 0, "CLASSIFICATION_TYPE": "U", "NORAD_CAT_ID": 43582, "ELEMENT_SET_NO": 999, "REV_AT_EPOCH": 5037, "BSTAR": 0, "MEAN_MOTION_DOT": 1e-06, "MEAN_MOTION_DDOT": 0}, "tle": {"line1": "1 43582U 18062B   25357.92255485  .00000100  00000+0  00000+0 0  9990", "line2": "2 43582  54.0895 188.2520 0007870  49.2706 310.8346  1.86229712 50379"}}, "geometry": {"type": "Point", "coordinates": [-22.82801965386589, 35.381809255217775]}}, {"type": "Feature", "properties": {"norad_id": 43602, "name": "BEIDOU-3 M12 (C26)", "group": "beidou", "lat": 3.3024091638760433, "lon": 4.498674766602279, "alt_km": 21546.086320106457, "timestamp": "2025-12-26T19:22:39.172205+00:00", "meta": {"OBJECT_NAME": "BEIDOU-3 M12 (C26)", "OBJECT_ID": "2018-067A", "EPOCH": "2025-12-26T13:05:12.986016", "MEAN_MOTION": 1.86227811, "ECCENTRICITY": 0.00092355, "INCLINATION": 54.1838, "RA_OF_ASC_NODE": 186.8947, "ARG_OF_PERICENTER": 41.8469, "MEAN_ANOMALY": 318.2561, "EPHEMERIS_TYPE": 0, "CLASSIFICATION_TYPE": "U", "NORAD_CAT_ID": 43602, "ELEMENT_SET_NO": 999, "REV_AT_EPOCH": 4990, "BSTAR": 0, "MEAN_MOTION_DOT": 1.23e-06, "MEAN_MOTION_DDOT": 0}, "tle": {"line1": "1 43602U 18067A   25360.54528919  .00000123  00000+0  00000+0 0  9990", "line2": "2 43602  54.1838 186.8947 0009235  41.8469 318.2561  1.86227811 49904"}}, "geometry": {"type": "Point", "coordinates": [4.498674766602279, 3.3024091638760433]}}, {"type": "Feature", "properties": {"norad_id": 43603, "name": "BEIDOU-3 M11 (C25)", "group": "beidou", "lat": 53.924235035986854, "lon": -90.57575959529605, "alt_km": 21511.529209526117, "timestamp": "2025-12-26T19:22:39.172216+00:00", "meta": {"OBJECT_NAME": "BEIDOU-3 M11 (C25)", "OBJECT_ID": "2018-067B", "EPOCH": "2025-12-24T12:46:04.310976", "MEAN_MOTION": 1.86227356, "ECCENTRICITY": 0.00056287, "INCLINATION": 54.181, "RA_OF_ASC_NODE": 186.927, "ARG_OF_PERICENTER": 37.873, "MEAN_ANOMALY": 322.1992, "EPHEMERIS_TYPE": 0, "CLASSIFICATION_TYPE": "U", "NORAD_CAT_ID": 43603, "ELEMENT_SET_NO": 999, "REV_AT_EPOCH": 4989, "BSTAR": 0, "MEAN_MOTION_DOT": 1.05e-06, "MEAN_MOTION_DDOT": 0}, "tle": {"line1": "1 43603U 18067B   25358.53199434  .00000105  00000+0  00000+0 0  9993", "line2": "2 43603  54.1810 186.9270 0005628  37.8730 322.1992  1.86227356 49897"}}, "geometry": {"type": "Point", "coordinates": [-90.57575959529605, 53.924235035986854]}}]}